GLOBALSTAR M001 [-]     
1 25162U 98008A   24012.40139167 -.00000115  00000+0 -14384-3 0  9992
2 25162  52.0049  51.8752 0001717 219.0750 244.8128 12.38174319179078
GLOBALSTAR M002 [-]     
1 25164U 98008C   24012.56906616 -.00000109  00000+0 -63201-3 0  9997
2 25164  52.0014 108.0599 0000966 223.3910 136.6834 11.61497151123457
GLOBALSTAR M014 [-]     
1 25306U 98023A   24012.06372266 -.00000070  00000+0  13772-3 0  9999
2 25306  51.9855  43.5273 0001111 129.8643 244.3336 11.65463115130295
GLOBALSTAR M006 [-]     
1 25307U 98023B   24012.60383936 -.00000094  00000+0 -37461-3 0  9994
2 25307  51.9947  75.1415 0003582 242.2061 267.9014 11.58157110156395
GLOBALSTAR M015 [-]     
1 25308U 98023C   24012.54123723 -.00000075  00000+0 -27019-4 0  9992
2 25308  51.9805 149.8630 0011912 221.1377 218.7289 11.48857696134129
GLOBALSTAR M008 [-]     
1 25309U 98023D   24012.11131800 -.00000062  00000+0  26824-3 0  9998
2 25309  51.9965 271.6417 0002641 135.5894  12.1649 12.36034477173283
